IRIDIUM 57              
1 25273U 98019B   24356.59595615  .00000631  00000+0  21202-3 0  9990
2 25273  86.3973 219.5979 0001958  84.2466 275.8954 14.35644640399303
IRIDIUM 63              
1 25286U 98021B   24356.40401495  .00000875  00000+0  29325-3 0  9993
2 25286  86.4000 156.6702 0002132  93.6933 266.4508 14.36257702398324
IRIDIUM 69              
1 25319U 98026A   24356.54137173  .00000833  00000+0  25532-3 0  9999
2 25319  86.3999 170.4203 0000810 195.6431 164.4743 14.40599128397721
IRIDIUM 71              
1 25320U 98026B   24356.57397560  .00000927  00000+0  28354-3 0  9991
2 25320  86.3994 165.1357 0001531  17.0260 343.0990 14.40839317398016
IRIDIUM 73              
1 25344U 98032C   24356.40986089  .00001467  00000+0  36400-3 0  9997
2 25344  86.4422 122.3190 0001534 106.8612 253.2762 14.51256804404776
IRIDIUM 82              
1 25467U 98051A   24356.07232329  .00023002  00000+0  90379-3 0  9992
2 25467  86.3733 196.4586 0103933 248.1527 110.8637 15.20595270396788
